ONEWEB-0545             
1 54647U 22166F   24204.44867106  .00000088  00000+0  18038-3 0  9999
2 54647  87.9276  22.3039 0002303  85.2016 274.9381 13.21826273 79720
ONEWEB-0580             
1 54648U 22166G   24204.49755375  .00000019  00000+0  13713-4 0  9999
2 54648  87.9284  22.2657 0002345  94.1587 265.9814 13.21826346 79770
ONEWEB-0582             
1 54649U 22166H   24204.46444064 -.00000005  00000+0 -42974-4 0  9995
2 54649  87.9282  22.3085 0002497  97.2937 262.8481 13.21825848 79745
ONEWEB-0583             
1 54650U 22166J   24204.47547574  .00000003  00000+0 -25042-4 0  9992
2 54650  87.9280  22.3060 0001870  87.5085 272.6263 13.21826470 80233
ONEWEB-0584             
1 54651U 22166K   24204.49598167  .00000029  00000+0  38660-4 0  9996
2 54651  87.9284  22.2695 0002155  91.7893 268.3488 13.21826073 79746
ONEWEB-0585             
1 54652U 22166L   24204.44550949  .00000064  00000+0  12389-3 0  9996
2 54652  87.9286  22.2887 0001739  89.9691 270.1642 13.21826803 79748
ONEWEB-0586             
1 54653U 22166M   24204.45812263  .00000050  00000+0  89590-4 0  9992
2 54653  87.9282  22.2990 0002068  89.2549 270.8822 13.21823673 79740
ONEWEB-0587             
1 54654U 22166N   24204.46757778 -.00000017  00000+0 -73091-4 0  9997
2 54654  87.9280  22.2519 0001532  86.5845 273.5464 13.21827447 79903
